NORAD_CAT_ID,OBJECT_NAME,OBJECT_TYPE,EPOCH,MEAN_MOTION,ECCENTRICITY,INCLINATION,RA_OF_ASC_NODE,ARG_OF_PERICENTER,MEAN_ANOMALY,BSTAR,MEAN_MOTION_DOT,MEAN_MOTION_DDOT,TLE_LINE0,TLE_LINE1,TLE_LINE2,SEMIMAJOR_AXIS,PERIOD,APOGEE,PERIGEE,DECAYED
54089.0,STARLINK-5143,PAYLOAD,2023-09-04 09:10:17,15.08840344,0.0001235,53.217,131.9432,88.2157,271.8976,-3.9937e-05,-9.23e-06,0.0,0 STARLINK-5143,1 54089U 22136AQ  23247.38214129 -.00000923  00000-0 -39937-4 0  9999,2 54089  53.2170 131.9432 0001235  88.2157 271.8976 15.08840344 48505,6917.879,95.438,540.599,538.89,0.0
54089.0,STARLINK-5143,PAYLOAD,2023-09-04 18:42:36,15.08834781,0.0001284,53.2169,130.1602,89.859,270.255,8.9346e-05,1.134e-05,0.0,0 STARLINK-5143,1 54089U 22136AQ  23247.77958524  .00001134  00000-0  89346-4 0  9998,2 54089  53.2169 130.1602 0001284  89.8590 270.2550 15.08834781 49033,6917.896,95.438,540.65,538.873,0.0
54089.0,STARLINK-5143,PAYLOAD,2023-09-05 02:39:31,15.0884329,0.0001323,53.2171,128.6731,89.3986,270.7158,0.00013523,1.865e-05,0.0,0 STARLINK-5143,1 54089U 22136AQ  23248.11077975  .00001865  00000-0  13523-3 0  9993,2 54089  53.2171 128.6731 0001323  89.3986 270.7158 15.08843290 49088,6917.87,95.437,540.651,538.82,0.0
54089.0,STARLINK-5143,PAYLOAD,2023-09-06 00:54:55,15.08841518,0.0001331,53.2173,124.5101,92.2059,267.9085,9.532e-05,1.229e-05,0.0,0 STARLINK-5143,1 54089U 22136AQ  23249.03814275  .00001229  00000-0  95320-4 0  9997,2 54089  53.2173 124.5101 0001331  92.2059 267.9085 15.08841518 49223,6917.876,95.437,540.662,538.82,0.0
54089.0,STARLINK-5143,PAYLOAD,2023-09-06 21:34:56,15.08843617,0.0001363,53.2174,120.6445,94.0974,266.0174,0.00010905,1.448e-05,0.0,0 STARLINK-5143,1 54089U 22136AQ  23249.89926154  .00001448  00000-0  10905-3 0  9999,2 54089  53.2174 120.6445 0001363  94.0974 266.0174 15.08843617 48885,6917.869,95.437,540.677,538.791,0.0
54089.0,STARLINK-5143,PAYLOAD,2023-09-07 15:04:10,15.08842148,0.0001189,53.217,117.3719,100.1282,259.9844,4.516e-05,4.31e-06,0.0,0 STARLINK-5143,1 54089U 22136AQ  23250.62790181  .00000431  00000-0  45160-4 0  9994,2 54089  53.2170 117.3719 0001189 100.1282 259.9844 15.08842148 49463,6917.874,95.437,540.561,538.916,0.0
54089.0,STARLINK-5143,PAYLOAD,2023-09-07 23:01:06,15.08842377,0.0001483,53.2169,115.8871,80.8971,279.2189,3.643e-05,2.92e-06,0.0,0 STARLINK-5143,1 54089U 22136AQ  23250.95910292  .00000292  00000-0  36430-4 0  9992,2 54089  53.2169 115.8871 0001483  80.8971 279.2189 15.08842377 49044,6917.873,95.437,540.764,538.712,0.0
54089.0,STARLINK-5143,PAYLOAD,2023-09-08 18:05:44,15.08839708,0.000137,53.2166,112.3186,75.8097,284.3047,8.4238e-05,1.053e-05,0.0,0 STARLINK-5143,1 54089U 22136AQ  23251.75398220  .00001053  00000-0  84238-4 0  9997,2 54089  53.2166 112.3186 0001370  75.8097 284.3047 15.08839708 49639,6917.881,95.438,540.694,538.799,0.0
54089.0,STARLINK-5143,PAYLOAD,2023-09-08 21:16:30,15.08840988,0.0001488,53.2178,111.7221,91.2648,268.8514,0.0001058,1.396e-05,0.0,0 STARLINK-5143,1 54089U 22136AQ  23251.88646057  .00001396  00000-0  10580-3 0  9993,2 54089  53.2178 111.7221 0001488  91.2648 268.8514 15.08840988 49187,6917.877,95.437,540.772,538.713,0.0
54089.0,STARLINK-5143,PAYLOAD,2023-09-09 00:27:16,15.08843782,0.0001448,53.2175,111.1273,89.4515,270.6643,0.00012831,1.755e-05,0.0,0 STARLINK-5143,1 54089U 22136AQ  23252.01893849  .00001755  00000-0  12831-3 0  9992,2 54089  53.2175 111.1273 0001448  89.4515 270.6643 15.08843782 49205,6917.869,95.437,540.736,538.732,0.0
54089.0,STARLINK-5143,PAYLOAD,2023-09-09 21:07:17,15.08841212,0.0001474,53.2175,107.2624,92.7752,267.3409,6.0847e-05,6.81e-06,0.0,0 STARLINK-5143,1 54089U 22136AQ  23252.88006220  .00000681  00000-0  60847-4 0  9994,2 54089  53.2175 107.2624 0001474  92.7752 267.3409 15.08841212 49805,6917.877,95.437,540.761,538.722,0.0
54089.0,STARLINK-5143,PAYLOAD,2023-09-10 19:22:41,15.08836948,0.0001393,53.2175,103.0985,94.8992,265.2159,1.0248e-05,-1.25e-06,0.0,0 STARLINK-5143,1 54089U 22136AQ  23253.80742744 -.00000125  00000-0  10248-4 0  9999,2 54089  53.2175 103.0985 0001393  94.8992 265.2159 15.08836948 49942,6917.89,95.438,540.718,538.791,0.0
54089.0,STARLINK-5143,PAYLOAD,2023-09-11 06:30:23,15.08840277,0.0001249,53.2165,101.0179,88.1809,271.9326,-2.451e-09,-2.88e-06,0.0,0 STARLINK-5143,1 54089U 22136AQ  23254.27110636 -.00000288  00000-0 -24510-8 0  9992,2 54089  53.2165 101.0179 0001249  88.1809 271.9326 15.08840277 49543,6917.88,95.438,540.609,538.88,0.0
54089.0,STARLINK-5143,PAYLOAD,2023-09-11 22:24:14,15.08847699,0.0001195,53.2167,98.0429,85.3263,274.7866,0.00011367,1.522e-05,0.0,0 STARLINK-5143,1 54089U 22136AQ  23254.93349967  .00001522  00000-0  11367-3 0  9997,2 54089  53.2167  98.0429 0001195  85.3263 274.7866 15.08847699 50111,6917.857,95.437,540.549,538.895,0.0
54089.0,STARLINK-5143,PAYLOAD,2023-09-12 20:39:38,15.08840733,0.0001241,53.2168,93.8789,80.0566,280.0566,9.5862e-05,1.238e-05,0.0,0 STARLINK-5143,1 54089U 22136AQ  23255.86086708  .00001238  00000-0  95862-4 0  9998,2 54089  53.2168  93.8789 0001241  80.0566 280.0566 15.08840733 49784,6917.878,95.438,540.602,538.885,0.0
54089.0,STARLINK-5143,PAYLOAD,2023-09-12 23:50:24,15.08847918,0.0001318,53.2172,93.2844,81.9767,278.1375,0.00016407,2.325e-05,0.0,0 STARLINK-5143,1 54089U 22136AQ  23255.99334191  .00002325  00000-0  16407-3 0  9999,2 54089  53.2172  93.2844 0001318  81.9767 278.1375 15.08847918 50277,6917.856,95.437,540.633,538.809,0.0
54089.0,STARLINK-5143,PAYLOAD,2023-09-13 12:33:29,15.08843128,0.0001317,53.2165,90.9056,88.6009,271.5134,8.7968e-05,1.112e-05,0.0,0 STARLINK-5143,1 54089U 22136AQ  23256.52326383  .00001112  00000-0  87968-4 0  9997,2 54089  53.2165  90.9056 0001317  88.6009 271.5134 15.08843128 49884,6917.871,95.437,540.647,538.825,0.0
54089.0,STARLINK-5143,PAYLOAD,2023-09-13 20:30:25,15.08853611,0.0001331,53.2162,89.4203,92.1804,267.934,0.00013848,1.917e-05,0.0,0 STARLINK-5143,1 54089U 22136AQ  23256.85445689  .00001917  00000-0  13848-3 0  9992,2 54089  53.2162  89.4203 0001331  92.1804 267.9340 15.08853611 49939,6917.839,95.437,540.625,538.783,0.0
54089.0,STARLINK-5143,PAYLOAD,2023-09-13 22:05:48,15.08845829,0.0001428,53.2163,89.1227,97.0379,263.0776,0.0004082,6.216e-05,0.0,0 STARLINK-5143,1 54089U 22136AQ  23256.92070075  .00006216  00000-0  40820-3 0  9990,2 54089  53.2163  89.1227 0001428  97.0379 263.0776 15.08845829 50418,6917.863,95.437,540.715,538.74,0.0
54089.0,STARLINK-5143,PAYLOAD,2023-09-14 12:24:17,15.08832817,0.0001488,53.2164,86.445,87.7541,272.3622,-0.00010067,-1.889e-05,0.0,0 STARLINK-5143,1 54089U 22136AQ  23257.51687028 -.00001889  00000-0 -10067-3 0  9991,2 54089  53.2164  86.4450 0001488  87.7541 272.3622 15.08832817 50034,6917.902,95.438,540.797,538.738,0.0
54089.0,STARLINK-5143,PAYLOAD,2023-09-14 18:45:50,15.08830782,0.0001493,53.2165,85.2552,87.4648,272.6515,-0.00010562,-1.968e-05,0.0,0 STARLINK-5143,1 54089U 22136AQ  23257.78183292 -.00001968  00000-0 -10562-3 0  9992,2 54089  53.2165  85.2552 0001493  87.4648 272.6515 15.08830782 50545,6917.909,95.438,540.806,538.741,0.0
54089.0,STARLINK-5143,PAYLOAD,2023-09-14 20:21:13,15.08828386,0.0001395,53.2164,84.9579,84.1839,275.9312,-0.00015685,-2.783e-05,0.0,0 STARLINK-5143,1 54089U 22136AQ  23257.84807435 -.00002783  00000-0 -15685-3 0  9998,2 54089  53.2164  84.9579 0001395  84.1839 275.9312 15.08828386 50083,6917.916,95.438,540.746,538.816,0.0
54089.0,STARLINK-5143,PAYLOAD,2023-09-15 12:15:05,15.08836754,0.0001282,53.2171,81.9849,82.0239,278.0898,6.0055e-05,6.68e-06,0.0,0 STARLINK-5143,1 54089U 22136AQ  23258.51047596  .00000668  00000-0  60055-4 0  9997,2 54089  53.2171  81.9849 0001282  82.0239 278.0898 15.08836754 50186,6917.89,95.438,540.642,538.868,0.0
54089.0,STARLINK-5143,PAYLOAD,2023-09-15 18:36:37,15.08841815,0.0001333,53.2163,80.7958,79.0566,281.0576,0.00015057,2.109e-05,0.0,0 STARLINK-5143,1 54089U 22136AQ  23258.77543283  .00002109  00000-0  15057-3 0  9992,2 54089  53.2163  80.7958 0001333  79.0566 281.0576 15.08841815 50698,6917.875,95.437,540.662,538.818,0.0
54089.0,STARLINK-5143,PAYLOAD,2023-09-16 12:05:52,15.08841095,0.0001358,53.2158,77.5247,74.3582,285.756,0.00032059,4.818e-05,0.0,0 STARLINK-5143,1 54089U 22136AQ  23259.50407679  .00004818  00000-0  32059-3 0  9992,2 54089  53.2158  77.5247 0001358  74.3582 285.7560 15.08841095 50335,6917.877,95.437,540.681,538.803,0.0
54089.0,STARLINK-5143,PAYLOAD,2023-09-16 23:13:33,15.08856557,0.0001362,53.2161,75.4425,77.3675,282.7469,0.00049636,7.624e-05,0.0,0 STARLINK-5143,1 54089U 22136AQ  23259.96775077  .00007624  00000-0  49636-3 0  9999,2 54089  53.2161  75.4425 0001362  77.3675 282.7469 15.08856557 50878,6917.83,95.437,540.637,538.753,0.0
54089.0,STARLINK-5143,PAYLOAD,2023-09-17 18:18:11,15.0884976,0.0001318,53.2166,71.8738,81.9449,278.1693,0.00012743,1.741e-05,0.0,0 STARLINK-5143,1 54089U 22136AQ  23260.76262924  .00001741  00000-0  12743-3 0  9994,2 54089  53.2166  71.8738 0001318  81.9449 278.1693 15.08849760 50990,6917.851,95.437,540.627,538.804,0.0
54089.0,STARLINK-5143,PAYLOAD,2023-09-18 11:47:25,15.08840791,0.0001258,53.2165,68.6014,84.8892,275.2244,5.2701e-05,5.51e-06,0.0,0 STARLINK-5143,1 54089U 22136AQ  23261.49127227  .00000551  00000-0  52701-4 0  9998,2 54089  53.2165  68.6014 0001258  84.8892 275.2244 15.08840791 50633,6917.878,95.438,540.613,538.873,0.0
54089.0,STARLINK-5143,PAYLOAD,2023-09-18 18:08:58,15.08848472,0.0001325,53.2167,67.4146,84.9072,275.2071,0.00010491,1.382e-05,0.0,0 STARLINK-5143,1 54089U 22136AQ  23261.75622763  .00001382  00000-0  10491-3 0  9994,2 54089  53.2167  67.4146 0001325  84.9072 275.2071 15.08848472 51143,6917.854,95.437,540.636,538.803,0.0
54089.0,STARLINK-5143,PAYLOAD,2023-09-19 03:41:17,15.08835078,0.0001403,53.218,65.6279,89.6896,270.4257,-9.417e-05,-1.786e-05,0.0,0 STARLINK-5143,1 54089U 22136AQ  23262.15367231 -.00001786  00000-0 -94170-4 0  9992,2 54089  53.2180  65.6279 0001403  89.6896 270.4257 15.08835078 51206,6917.895,95.438,540.731,538.79,0.0
